NORAD_CAT_ID,OBJECT_NAME,OBJECT_TYPE,EPOCH,MEAN_MOTION,ECCENTRICITY,INCLINATION,RA_OF_ASC_NODE,ARG_OF_PERICENTER,MEAN_ANOMALY,BSTAR,MEAN_MOTION_DOT,MEAN_MOTION_DDOT,TLE_LINE0,TLE_LINE1,TLE_LINE2,SEMIMAJOR_AXIS,PERIOD,APOGEE,PERIGEE,DECAYED
49763.0,STARLINK-3198,PAYLOAD,2024-08-06 16:48:05,15.08833756,0.0001433,53.2162,222.7962,92.0055,268.1101,-4.4545e-05,-9.97e-06,0.0,0 STARLINK-3198,1 49763U 21115AR  24219.70006357 -.00000997  00000-0 -44545-4 0  9998,2 49763  53.2162 222.7962 0001433  92.0055 268.1101 15.08833756148123,6917.899,95.438,540.756,538.773,0.0
49763.0,STARLINK-3198,PAYLOAD,2024-08-07 05:31:10,15.08836363,0.0001394,53.2158,220.4171,93.7715,266.3437,5.1743e-05,5.36e-06,0.0,0 STARLINK-3198,1 49763U 21115AR  24220.22998059  .00000536  00000-0  51743-4 0  9991,2 49763  53.2158 220.4171 0001394  93.7715 266.3437 15.08836363149313,6917.892,95.438,540.721,538.792,0.0
49763.0,STARLINK-3198,PAYLOAD,2024-08-08 08:32:43,15.08837189,0.0001361,53.2158,215.3624,95.0765,265.0382,0.00015874,2.239e-05,0.0,0 STARLINK-3198,1 49763U 21115AR  24221.35606078  .00002239  00000-0  15874-3 0  9999,2 49763  53.2158 215.3624 0001361  95.0765 265.0382 15.08837189148370,6917.889,95.438,540.696,538.812,0.0
49763.0,STARLINK-3198,PAYLOAD,2024-08-08 22:51:10,15.08852596,8.77e-05,53.2159,212.6809,108.4968,251.6119,0.00028469,4.248e-05,0.0,0 STARLINK-3198,1 49763U 21115AR  24221.95220136  .00004248  00000-0  28469-3 0  9998,2 49763  53.2159 212.6809 0000877 108.4968 251.6119 15.08852596148469,6917.842,95.437,540.314,539.1,0.0
49763.0,STARLINK-3198,PAYLOAD,2024-08-09 03:37:19,15.08861685,0.0001551,53.2163,211.7947,79.4933,280.6234,0.00021864,3.195e-05,0.0,0 STARLINK-3198,1 49763U 21115AR  24222.15091834  .00003195  00000-0  21864-3 0  9994,2 49763  53.2163 211.7947 0001551  79.4933 280.6234 15.08861685149602,6917.814,95.436,540.752,538.606,0.0
49763.0,STARLINK-3198,PAYLOAD,2024-08-09 16:20:26,15.08831887,0.0001764,53.2162,209.4144,87.3697,272.7497,-5.714e-05,-1.197e-05,0.0,0 STARLINK-3198,1 49763U 21115AR  24222.68086554 -.00001197  00000-0 -57140-4 0  9994,2 49763  53.2162 209.4144 0001764  87.3697 272.7497 15.08831887149687,6917.905,95.438,540.991,538.55,0.0
49763.0,STARLINK-3198,PAYLOAD,2024-08-09 22:41:59,15.08832118,0.0001824,53.2161,208.2256,88.3394,271.7807,-6.0342e-05,-1.248e-05,0.0,0 STARLINK-3198,1 49763U 21115AR  24222.94582705 -.00001248  00000-0 -60342-4 0  9997,2 49763  53.2161 208.2256 0001824  88.3394 271.7807 15.08832118148613,6917.904,95.438,541.031,538.508,0.0
49763.0,STARLINK-3198,PAYLOAD,2024-08-10 03:28:09,15.08828585,0.0001685,53.2159,207.3343,90.4788,269.6397,-9.8415e-05,-1.854e-05,0.0,0 STARLINK-3198,1 49763U 21115AR  24223.14455021 -.00001854  00000-0 -98415-4 0  9995,2 49763  53.2159 207.3343 0001685  90.4788 269.6397 15.08828585148649,6917.915,95.438,540.946,538.615,0.0
49763.0,STARLINK-3198,PAYLOAD,2024-08-11 08:05:03,15.08859877,0.0001785,53.218,201.977,110.3978,249.7206,-1.229e-05,-4.84e-06,0.0,0 STARLINK-3198,1 49763U 21115AR  24224.33684705 -.00000484  00000-0 -12290-4 0  9995,2 49763  53.2180 201.9770 0001785 110.3978 249.7206 15.08859877149930,6917.82,95.436,540.919,538.45,0.0
49763.0,STARLINK-3198,PAYLOAD,2024-08-12 04:45:05,15.08847833,0.0001605,53.2173,198.1104,108.1897,251.927,0.00029496,4.41e-05,0.0,0 STARLINK-3198,1 49763U 21115AR  24225.19797772  .00004410  00000-0  29496-3 0  9995,2 49763  53.2173 198.1104 0001605 108.1897 251.9270 15.08847833150067,6917.856,95.437,540.832,538.611,0.0
49763.0,STARLINK-3198,PAYLOAD,2024-08-12 07:55:51,15.08847432,0.0001602,53.2174,197.5175,89.549,270.5686,0.00022615,3.314e-05,0.0,0 STARLINK-3198,1 49763U 21115AR  24225.33045777  .00003314  00000-0  22615-3 0  9990,2 49763  53.2174 197.5175 0001602  89.5490 270.5686 15.08847432148977,6917.858,95.437,540.831,538.614,0.0
49763.0,STARLINK-3198,PAYLOAD,2024-08-12 22:14:19,15.08862336,0.0002582,53.2174,194.8385,107.9515,252.1758,0.00023077,3.389e-05,0.0,0 STARLINK-3198,1 49763U 21115AR  24225.92660943  .00003389  00000-0  23077-3 0  9998,2 49763  53.2174 194.8385 0002582 107.9515 252.1758 15.08862336149068,6917.812,95.436,541.463,537.891,0.0
49763.0,STARLINK-3198,PAYLOAD,2024-08-13 04:35:52,15.08841426,0.000158,53.2169,193.6543,97.9302,262.187,-0.00011963,-2.192e-05,0.0,0 STARLINK-3198,1 49763U 21115AR  24226.19157665 -.00002192  00000-0 -11963-3 0  9994,2 49763  53.2169 193.6543 0001580  97.9302 262.1870 15.08841426150216,6917.876,95.437,540.834,538.648,0.0
49763.0,STARLINK-3198,PAYLOAD,2024-08-13 22:05:07,15.08833304,0.0001545,53.216,190.3835,109.74,250.3758,-0.00011672,-2.145e-05,0.0,0 STARLINK-3198,1 49763U 21115AR  24226.92022097 -.00002145  00000-0 -11672-3 0  9990,2 49763  53.2160 190.3835 0001545 109.7400 250.3758 15.08833304149215,6917.901,95.438,540.835,538.697,0.0
49763.0,STARLINK-3198,PAYLOAD,2024-08-14 04:26:40,15.08825101,0.0001346,53.2162,189.1972,94.6859,265.4287,-0.00024967,-4.258e-05,0.0,0 STARLINK-3198,1 49763U 21115AR  24227.18518799 -.00004258  00000-0 -24967-3 0  9996,2 49763  53.2162 189.1972 0001346  94.6859 265.4287 15.08825101150362,6917.926,95.438,540.722,538.86,0.0
49763.0,STARLINK-3198,PAYLOAD,2024-08-14 13:58:59,15.08828113,0.0001388,53.2173,187.4124,107.2415,252.8729,-6.1661e-05,-1.269e-05,0.0,0 STARLINK-3198,1 49763U 21115AR  24227.58263247 -.00001269  00000-0 -61661-4 0  9997,2 49763  53.2173 187.4124 0001388 107.2415 252.8729 15.08828113149319,6917.917,95.438,540.742,538.822,0.0
49763.0,STARLINK-3198,PAYLOAD,2024-08-15 04:17:27,15.08832787,0.0001312,53.2166,184.7356,95.3822,264.732,9.8603e-05,1.281e-05,0.0,0 STARLINK-3198,1 49763U 21115AR  24228.17878806  .00001281  00000-0  98603-4 0  9994,2 49763  53.2166 184.7356 0001312  95.3822 264.7320 15.08832787150519,6917.902,95.438,540.675,538.86,0.0
49763.0,STARLINK-3198,PAYLOAD,2024-08-15 13:49:45,15.08844098,0.0001321,53.2172,182.9511,95.2501,264.8641,0.00010907,1.449e-05,0.0,0 STARLINK-3198,1 49763U 21115AR  24228.57622151  .00001449  00000-0  10907-3 0  9994,2 49763  53.2172 182.9511 0001321  95.2501 264.8641 15.08844098149469,6917.868,95.437,540.647,538.819,0.0
49763.0,STARLINK-3198,PAYLOAD,2024-08-16 04:08:15,15.08821799,0.0001491,53.2178,180.2784,104.4009,255.7148,0.00014913,2.085e-05,0.0,0 STARLINK-3198,1 49763U 21115AR  24229.17239984  .00002085  00000-0  14913-3 0  9997,2 49763  53.2178 180.2784 0001491 104.4009 255.7148 15.08821799150660,6917.936,95.439,540.832,538.77,0.0
49763.0,STARLINK-3198,PAYLOAD,2024-08-17 05:34:24,15.08844942,0.0001271,53.2162,175.5173,95.3288,264.7849,9.1346e-05,1.166e-05,0.0,0 STARLINK-3198,1 49763U 21115AR  24230.23223058  .00001166  00000-0  91346-4 0  9996,2 49763  53.2162 175.5173 0001271  95.3288 264.7849 15.08844942150826,6917.865,95.437,540.61,538.851,0.0
49763.0,STARLINK-3198,PAYLOAD,2024-08-18 03:49:49,15.08828784,0.000113,53.2162,171.3536,97.5583,262.5537,-5.5942e-05,-1.178e-05,0.0,0 STARLINK-3198,1 49763U 21115AR  24231.15959715 -.00001178  00000-0 -55942-4 0  9991,2 49763  53.2162 171.3536 0001130  97.5583 262.5537 15.08828784150960,6917.915,95.438,540.561,538.998,0.0
49763.0,STARLINK-3198,PAYLOAD,2024-08-18 05:25:12,15.08828705,0.000113,53.2162,171.0562,96.7672,263.3449,-5.6366e-05,-1.184e-05,0.0,0 STARLINK-3198,1 49763U 21115AR  24231.22583755 -.00001184  00000-0 -56366-4 0  9994,2 49763  53.2162 171.0562 0001130  96.7672 263.3449 15.08828705149867,6917.915,95.438,540.562,538.998,0.0
49763.0,STARLINK-3198,PAYLOAD,2024-08-19 05:15:59,15.08838381,0.000121,53.2169,166.5921,86.0264,274.0867,-9.5575e-06,-4.4e-06,0.0,0 STARLINK-3198,1 49763U 21115AR  24232.21943388 -.00000440  00000-0 -95575-5 0  9996,2 49763  53.2169 166.5921 0001210  86.0264 274.0867 15.08838381151126,6917.885,95.438,540.587,538.913,0.0
49763.0,STARLINK-3198,PAYLOAD,2024-08-19 13:12:54,15.08844629,0.0001144,53.2165,165.1078,95.5656,264.5467,1.7698e-05,-6e-08,0.0,0 STARLINK-3198,1 49763U 21115AR  24232.55062862 -.00000006  00000-0  17698-4 0  9998,2 49763  53.2165 165.1078 0001144  95.5656 264.5467 15.08844629150060,6917.866,95.437,540.523,538.94,0.0
49763.0,STARLINK-3198,PAYLOAD,2024-08-20 05:06:46,15.08831585,0.000146,53.2157,162.1342,97.5315,262.5843,0.00024257,3.574e-05,0.0,0 STARLINK-3198,1 49763U 21115AR  24233.21303968  .00003574  00000-0  24257-3 0  9997,2 49763  53.2157 162.1342 0001460  97.5315 262.5843 15.08831585151274,6917.906,95.438,540.781,538.761,0.0
49763.0,STARLINK-3198,PAYLOAD,2024-08-21 04:57:33,15.0884411,0.0001406,53.2165,157.6734,98.1897,261.9255,0.00023145,3.398e-05,0.0,0 STARLINK-3198,1 49763U 21115AR  24234.20663602  .00003398  00000-0  23145-3 0  9990,2 49763  53.2165 157.6734 0001406  98.1897 261.9255 15.08844110150311,6917.868,95.437,540.705,538.76,0.0
49763.0,STARLINK-3198,PAYLOAD,2024-08-21 22:26:48,15.088398,0.0001423,53.216,154.4012,95.7406,264.3748,0.00013865,1.919e-05,0.0,0 STARLINK-3198,1 49763U 21115AR  24234.93527814  .00001919  00000-0  13865-3 0  9999,2 49763  53.2160 154.4012 0001423  95.7406 264.3748 15.08839800151537,6917.881,95.438,540.73,538.762,0.0
